OBJECT_NAME,OBJECT_ID,EPOCH,MEAN_MOTION,ECCENTRICITY,INCLINATION,RA_OF_ASC_NODE,ARG_OF_PERICENTER,MEAN_ANOMALY,EPHEMERIS_TYPE,CLASSIFICATION_TYPE,NORAD_CAT_ID,ELEMENT_SET_NO,REV_AT_EPOCH,BSTAR,MEAN_MOTION_DOT,MEAN_MOTION_DDOT
STARLINK-5509,2023-094AX,2025-10-02T03:34:12.132192,15.02529978,0.0001314,42.9998,171.5939,263.1406,96.9286,0,U,57263,999,12327,8.2183e-05,9.07e-06,0.0
STARLINK-5858,2023-094AY,2025-10-02T00:18:19.726848,15.02528982,0.0001605,43.0053,159.2846,257.6338,102.4324,0,U,57264,999,12340,-7.5375e-06,-3.06e-06,0.0
STARLINK-5890,2023-094AZ,2025-10-02T01:50:50.849088,15.02548875,0.0001048,43.0018,158.9106,272.9433,87.129,0,U,57265,999,12341,-5.0633e-05,-8.88e-06,0.0
HULIANWANG JISHU SHIYAN A,2023-095A,2025-10-02T04:22:54.912000,13.3953063,0.0017524,86.4946,94.1163,184.0299,176.0705,0,U,57288,999,10921,0.00053452,3.04e-06,0.0
HULIANWANG JISHU SHIYAN B,2023-095B,2025-10-02T04:12:30.362688,13.39526497,0.0016123,86.4948,94.125,181.7549,178.354,0,U,57289,999,10921,0.0005403,3.07e-06,0.0
STARLINK-30198,2023-096A,2025-10-01T22:41:09.169728,15.02522578,7.79e-05,43.0031,6.1225,267.0123,93.063,0,U,57290,999,12373,-0.00027017,-3.85e-05,0.0
STARLINK-30239,2023-096B,2025-10-01T22:36:22.553280,15.02521755,7.82e-05,43.0041,6.0994,279.6356,80.4398,0,U,57291,999,12373,9.6007e-05,1.093e-05,0.0
STARLINK-30210,2023-096C,2025-10-02T04:00:03.000096,15.23272466,0.0023193,42.9963,348.2779,14.5223,316.8029,0,U,57292,999,587,0.0065021,0.00161505,0.0
STARLINK-30235,2023-096E,2025-10-01T15:59:02.596992,15.02528745,0.0001404,43.0044,7.4663,263.1067,96.9616,0,U,57294,999,12369,-0.00022004628,-3.174e-05,0.0
STARLINK-30238,2023-096G,2025-10-02T04:00:03.000096,15.23403391,0.0021514,42.9959,347.7026,16.4507,203.2485,0,U,57296,999,586,0.0062557,0.00155705,0.0
STARLINK-30234,2023-096H,2025-10-02T04:00:03.000096,15.57254768,0.0033639,42.9868,314.5132,62.208,92.8014,0,U,57297,999,593,0.0084369,0.00704166,0.0
STARLINK-30241,2023-096J,2025-10-02T04:00:03.000096,15.26517818,0.0022243,42.9952,343.7322,24.0979,53.8954,0,U,57298,999,583,0.0063636,0.0017447,0.0
STARLINK-30236,2023-096L,2025-10-01T23:38:31.229088,15.02554425,6.9e-05,42.9982,5.5552,244.8971,115.18,0,U,57300,999,12378,-0.00049193,-6.845e-05,0.0
STARLINK-30201,2023-096M,2025-10-01T23:33:43.103232,15.02527248,0.0001217,43.002,5.5352,266.495,93.5753,0,U,57301,999,12284,-0.00022895,-3.294e-05,0.0
STARLINK-30233,2023-096N,2025-10-01T23:28:54.431328,15.02546304,0.0001975,43.0061,5.4872,261.7488,98.313,0,U,57302,999,12284,0.00014721,1.786e-05,0.0
STARLINK-30232,2023-096P,2025-10-02T04:00:03.000096,15.229657,0.002096,42.997,347.8997,17.9751,118.1537,0,U,57303,999,587,0.0061952,0.00152079,0.0
STARLINK-30177,2023-096R,2025-10-02T04:00:03.000096,15.23723757,0.0021463,42.9973,347.0936,16.5094,93.7574,0,U,57305,999,571,0.0064577,0.00162428,0.0
STARLINK-30200,2023-096S,2025-10-02T04:00:03.000096,15.2614293,0.0022017,42.9939,344.008,24.3484,308.9438,0,U,57306,999,588,0.0066002,0.00179002,0.0
STARLINK-30209,2023-096T,2025-10-02T04:00:03.000096,15.23422076,0.0021166,42.9964,347.3668,20.3361,330.2318,0,U,57307,999,587,0.0059206,0.00147238,0.0
STARLINK-30163,2023-096V,2025-10-02T04:00:03.000096,15.42414118,0.0029101,42.9948,325.9174,44.0374,1.2826,0,U,57309,999,586,0.0072834,0.00341078,0.0
STARLINK-30184,2023-096W,2025-10-02T04:02:30.079680,15.02530289,0.0001112,43.0023,338.4923,268.7153,91.3562,0,U,57310,999,12317,-5.2801e-05,-9.17e-06,0.0
STARLINK-30175,2023-096X,2025-10-02T04:00:03.000096,15.23023377,0.0021325,42.9963,347.5345,16.7767,269.7568,0,U,57311,999,576,0.0065416,0.00161101,0.0
STARLINK-6290,2023-099A,2025-10-02T00:19:17.031648,15.02555596,0.0001108,43.0077,31.5151,273.4274,86.6441,0,U,57328,999,12315,-0.00022097,-3.189e-05,0.0
STARLINK-6138,2023-099B,2025-10-01T19:17:39.613344,15.02570431,4.943e-05,43.0031,32.5164,228.2644,131.8157,0,U,57329,999,12221,0.00033778739,4.366e-05,0.0
STARLINK-6212,2023-099C,2025-10-02T00:14:29.116608,15.02535223,0.0001152,43.0044,31.4893,271.9868,88.0842,0,U,57330,999,12224,-2.2651e-05,-5.1e-06,0.0
STARLINK-6234,2023-099D,2025-10-02T00:12:53.209152,15.02524884,0.0001533,43.0081,31.4816,272.5071,87.5596,0,U,57331,999,12224,4.8428e-05,4.5e-06,0.0
STARLINK-5831,2023-099E,2025-10-01T19:22:32.160288,15.02514433,8.7e-05,43.0032,32.5418,237.8818,122.194,0,U,57332,999,12221,-0.00013843,-2.072e-05,0.0
STARLINK-5585,2023-099F,2025-10-01T09:46:34.579488,15.0250603,8.516e-05,43.0029,34.7014,247.7036,112.3716,0,U,57333,999,12215,-0.00026167381,-3.733e-05,0.0
STARLINK-5589,2023-099G,2025-10-01T19:12:56.464128,15.02514088,9.81e-05,43.0037,32.4919,262.776,97.2971,0,U,57334,999,12221,-0.00016461308,-2.425e-05,0.0
STARLINK-6316,2023-099H,2025-10-02T01:19:49.985760,15.0250464,0.000196,43.0045,30.9691,237.0057,123.0597,0,U,57335,999,12225,0.00052972,6.953e-05,0.0
STARLINK-6320,2023-099J,2025-10-02T00:36:41.026176,15.02534234,0.0001154,43.0042,30.7259,270.7907,89.2803,0,U,57336,999,12225,3.5922e-05,2.82e-06,0.0
STARLINK-6322,2023-099K,2025-10-01T19:08:07.346400,15.02530427,0.00014761,43.0049,32.4671,263.949,96.1184,0,U,57337,999,12221,-1.6010681e-05,-4.2e-06,0.0
STARLINK-6374,2023-099L,2025-10-02T01:24:38.247264,15.02518606,0.0001597,43.005,30.9891,263.4173,96.6488,0,U,57338,999,12225,0.00024198,3.065e-05,0.0
STARLINK-6332,2023-099M,2025-10-01T09:36:55.300320,15.02554281,0.00012215,43.0046,34.6524,272.4473,87.623,0,U,57339,999,12215,0.00025970951,3.308e-05,0.0
STARLINK-6321,2023-099N,2025-10-02T01:07:03.208224,15.02546738,8.14e-05,43.0031,30.8989,333.7692,26.3109,0,U,57340,999,12225,-0.0002698,-3.847e-05,0.0
STARLINK-6377,2023-099P,2025-10-02T01:15:02.846592,15.02532524,9.12e-05,43.0015,30.9402,260.0236,100.0503,0,U,57341,999,12225,-1.8686e-05,-4.56e-06,0.0
STARLINK-6375,2023-099Q,2025-10-01T19:55:54.025824,15.02529789,0.0001656,43.0055,31.8547,272.2675,87.7978,0,U,57342,999,12222,1.8829e-05,5.1e-07,0.0
STARLINK-6379,2023-099R,2025-10-02T01:10:14.885760,15.02540924,0.0001349,43.0054,30.9157,266.323,93.7458,0,U,57343,999,12225,-2.377e-05,-5.25e-06,0.0
STARLINK-6380,2023-099S,2025-10-02T00:57:27.868032,15.02556748,8.53e-05,43.0012,30.8449,276.5613,83.5132,0,U,57344,999,12225,-0.00035192,-4.957e-05,0.0
STARLINK-6373,2023-099T,2025-10-02T01:02:16.338624,15.02521815,7.26e-05,43.002,30.8713,258.4778,101.5983,0,U,57345,999,12225,4.2551e-05,3.71e-06,0.0
STARLINK-6359,2023-099U,2025-10-02T00:33:29.600064,15.02522456,0.0001063,43.0033,30.7183,280.5042,79.5681,0,U,57346,999,12225,0.00016285,1.996e-05,0.0
STARLINK-6378,2023-099V,2025-10-02T00:51:04.690080,15.02563389,7.5e-05,43.0008,30.8131,275.9414,84.1343,0,U,57347,999,12225,-0.000479,-6.672e-05,0.0
STARLINK-6372,2023-099W,2025-10-02T00:25:28.945632,15.02555239,0.0001877,43.0043,30.6794,264.7424,95.3205,0,U,57348,999,12225,0.0002364,2.993e-05,0.0
STARLINK-6376,2023-099X,2025-10-02T00:28:41.761056,15.02537183,0.0001423,43.0043,30.6969,259.2751,100.7931,0,U,57349,999,12297,2.1536e-05,8.7e-07,0.0
STARLINK-6362,2023-099Y,2025-10-01T13:27:07.870464,15.02530382,0.0001736,43.0094,21.106,264.2889,95.7756,0,U,57350,999,12232,-1.1777746e-05,-3.63e-06,0.0
STARLINK-6331,2023-099Z,2025-10-02T00:23:53.856384,15.02533145,0.0001551,43.0039,30.6705,262.1643,97.9023,0,U,57351,999,12225,0.00010533,1.219e-05,0.0
STARLINK-6297,2023-099AA,2025-10-02T00:27:34.585056,15.02581024,0.0001959,43.0067,18.5256,253.07,106.9928,0,U,57352,999,12239,-3.3369e-05,-6.55e-06,0.0
STARLINK-6324,2023-099AB,2025-10-02T00:20:42.178848,15.02536292,0.0001271,43.0033,30.6543,260.7736,99.2962,0,U,57353,999,12225,3.3352e-05,2.47e-06,0.0
STARLINK-6293,2023-099AC,2025-10-02T00:14:51.362016,15.02524344,8.95e-05,43.0046,18.4577,276.8448,83.2293,0,U,57354,999,12239,-8.7324e-05,-1.382e-05,0.0
STARLINK-6276,2023-099AD,2025-10-02T00:32:26.335392,15.0252223,8.9e-05,43.0064,18.5515,251.1733,108.9013,0,U,57355,999,12239,6.1435e-05,6.26e-06,0.0
STARLINK-6355,2023-099AE,2025-10-02T00:13:15.532320,15.02499439,6.2e-05,43.0022,18.4488,267.7853,92.2919,0,U,57356,999,12239,0.00079487,0.0001054,0.0
STARLINK-5600,2023-099AF,2025-10-02T00:24:26.404128,15.0252379,0.0001119,43.0037,18.5074,243.5523,116.5204,0,U,57357,999,12239,0.00046057,6.021e-05,0.0
STARLINK-6299,2023-099AG,2025-10-02T00:05:16.008000,15.02534735,0.0001547,43.0028,18.4062,269.8858,90.1807,0,U,57358,999,12313,0.00033316,4.299e-05,0.0
STARLINK-6347,2023-099AH,2025-10-02T00:29:14.141184,15.02521874,0.0001358,43.0083,18.5338,252.5186,107.5508,0,U,57359,999,12239,0.0001427,1.724e-05,0.0
STARLINK-6348,2023-099AJ,2025-10-01T23:55:42.619584,15.02496019,0.0001325,43.0051,18.3583,249.7497,110.3203,0,U,57360,999,12239,-0.00019329,-2.811e-05,0.0
STARLINK-6340,2023-099AK,2025-10-02T00:08:28.489920,15.02515118,7.58e-05,43.0033,18.4231,241.623,118.4536,0,U,57361,999,12239,-0.00018992,-2.767e-05,0.0
STARLINK-6343,2023-099AL,2025-10-01T23:50:51.667584,15.02544759,0.0001446,43.0039,18.3298,267.7505,92.3171,0,U,57362,999,12239,9.1412e-05,1.032e-05,0.0
STARLINK-6356,2023-099AM,2025-10-02T00:00:24.249024,15.0266832,0.0001916,43.0051,18.3814,293.6895,66.3746,0,U,57363,999,12239,-0.0022867,-0.00031066,0.0
STARLINK-6338,2023-099AN,2025-10-01T23:49:17.334336,15.02540817,0.0001203,43.0043,18.3215,281.7859,78.2848,0,U,57364,999,12239,-0.00025412,-3.635e-05,0.0
STARLINK-5007,2023-099AP,2025-10-01T23:34:52.941216,15.02533193,0.000108,43.0036,18.2402,250.5147,109.5579,0,U,57365,999,12239,-3.7747e-05,-7.13e-06,0.0
STARLINK-6174,2023-099AQ,2025-10-01T23:39:41.114592,15.02543959,4.45e-05,43.0019,18.2717,340.4715,19.611,0,U,57366,999,12239,0.00012645,1.505e-05,0.0
STARLINK-6215,2023-099AR,2025-10-01T23:30:29.218176,15.0252066,0.0001324,43.0062,5.1927,252.3037,107.7661,0,U,57367,999,12329,-0.00013238,-1.991e-05,0.0
STARLINK-6218,2023-099AS,2025-10-01T23:31:41.764800,15.02527118,0.0001168,43.0042,18.2304,255.5434,104.5279,0,U,57368,999,12239,-7.3713e-05,-1.199e-05,0.0
